{"type": "FeatureCollection", "features": [ {"type": "Feature", "properties": {"norad_id": 44622, "name": "GAOFEN-10R", "group": "resource", "lat": -31.978162003680307, "lon": -64.71616698792461, "alt_km": 626.1921287677651, "timestamp": "2025-12-08T17:43:04.551777+00:00", "meta": {"OBJECT_NAME": "GAOFEN-10R", "OBJECT_ID": "2019-066A", "EPOCH": "2025-12-08T06:31:34.796064", "MEAN_MOTION": 14.82768733, "ECCENTRICITY": 0.00080894, "INCLINATION": 98.0276, "RA_OF_ASC_NODE": 289.7608, "ARG_OF_PERICENTER": 54.266, "MEAN_ANOMALY": 305.9304, "EPHEMERIS_TYPE": 0, "CLASSIFICATION_TYPE": "U", "NORAD_CAT_ID": 44622, "ELEMENT_SET_NO": 999, "REV_AT_EPOCH": 33408, "BSTAR": 0.00038713394, "MEAN_MOTION_DOT": 3.076e-05, "MEAN_MOTION_DDOT": 0}, "tle": {"line1": "1 44622U 19066A   25342.27193051  .00003076  00000+0  38713-3 0  9994", "line2": "2 44622  98.0276 289.7608 0008089  54.2660 305.9304 14.82768733334081"}}, "geometry": {"type": "Point", "coordinates": [-64.71616698792461, -31.978162003680307]}}, {"type": "Feature", "properties": {"norad_id": 44804, "name": "CARTOSAT-3", "group": "resource", "lat": -33.5904627784038, "lon": 47.363682614161334, "alt_km": 520.7381231799536, "timestamp": "2025-12-08T17:43:04.551788+00:00", "meta": {"OBJECT_NAME": "CARTOSAT-3", "OBJECT_ID": "2019-081A", "EPOCH": "2025-12-08T06:48:08.749440", "MEAN_MOTION": 15.19313456, "ECCENTRICITY": 0.00139644, "INCLINATION": 97.4586, "RA_OF_ASC_NODE": 41.9229, "ARG_OF_PERICENTER": 101.0821, "MEAN_ANOMALY": 259.1985, "EPHEMERIS_TYPE": 0, "CLASSIFICATION_TYPE": "U", "NORAD_CAT_ID": 44804, "ELEMENT_SET_NO": 999, "REV_AT_EPOCH": 33448, "BSTAR": 0.0002858522, "MEAN_MOTION_DOT": 5.983e-05, "MEAN_MOTION_DDOT": 0}, "tle": {"line1": "1 44804U 19081A   25342.28343460  .00005983  00000+0  28585-3 0  9990", "line2": "2 44804  97.4586  41.9229 0013964 101.0821 259.1985 15.19313456334483"}}, "geometry": {"type": "Point", "coordinates": [47.363682614161334, -33.5904627784038]}}, {"type": "Feature", "properties": {"norad_id": 44819, "name": "GAOFEN-12 01", "group": "resource", "lat": -81.02882385775605, "lon": 108.69978152457011, "alt_km": 633.796595793975, "timestamp": "2025-12-08T17:43:04.551799+00:00", "meta": {"OBJECT_NAME": "GAOFEN-12 01", "OBJECT_ID": "2019-082A", "EPOCH": "2025-12-08T06:47:25.904544", "MEAN_MOTION": 14.80649738, "ECCENTRICITY": 0.00011883, "INCLINATION": 97.8126, "RA_OF_ASC_NODE": 348.6809, "ARG_OF_PERICENTER": 263.1822, "MEAN_ANOMALY": 96.9255, "EPHEMERIS_TYPE": 0, "CLASSIFICATION_TYPE": "U", "NORAD_CAT_ID": 44819, "ELEMENT_SET_NO": 999, "REV_AT_EPOCH": 32584, "BSTAR": 0.00013726379, "MEAN_MOTION_DOT": 1.004e-05, "MEAN_MOTION_DDOT": 0}, "tle": {"line1": "1 44819U 19082A   25342.28293871  .00001004  00000+0  13726-3 0  9998", "line2": "2 44819  97.8126 348.6809 0001188 263.1822  96.9255 14.80649738325849"}}, "geometry": {"type": "Point", "coordinates": [108.69978152457011, -81.02882385775605]}}, {"type": "Feature", "properties": {"norad_id": 44873, "name": "CSG-1", "group": "resource", "lat": -5.265613768595186, "lon": 164.85399751074863, "alt_km": 626.2043687985215, "timestamp": "2025-12-08T17:43:04.551813+00:00", "meta": {"OBJECT_NAME": "CSG-1", "OBJECT_ID": "2019-092A", "EPOCH": "2025-12-08T06:24:00.319968", "MEAN_MOTION": 14.82155159, "ECCENTRICITY": 0.00014671, "INCLINATION": 97.8812, "RA_OF_ASC_NODE": 163.6582, "ARG_OF_PERICENTER": 85.9834, "MEAN_ANOMALY": 274.1546, "EPHEMERIS_TYPE": 0, "CLASSIFICATION_TYPE": "U", "NORAD_CAT_ID": 44873, "ELEMENT_SET_NO": 999, "REV_AT_EPOCH": 32319, "BSTAR": 0.00016231384, "MEAN_MOTION_DOT": 1.24e-05, "MEAN_MOTION_DDOT": 0}, "tle": {"line1": "1 44873U 19092A   25342.26667037  .00001240  00000+0  16231-3 0  9992", "line2": "2 44873  97.8812 163.6582 0001467  85.9834 274.1546 14.82155159323197"}}, "geometry": {"type": "Point", "coordinates": [164.85399751074863, -5.265613768595186]}}, {"type": "Feature", "properties": {"norad_id": 46277, "name": "NEMO-HD", "group": "resource", "lat": 37.61840961125269, "lon": 36.28008531923104, "alt_km": 441.5252893900106, "timestamp": "2025-12-08T17:43:04.551824+00:00", "meta": {"OBJECT_NAME": "NEMO-HD", "OBJECT_ID": "2020-061F", "EPOCH": "2025-12-08T06:38:19.702752", "MEAN_MOTION": 15.40187576, "ECCENTRICITY": 0.00021304, "INCLINATION": 97.2213, "RA_OF_ASC_NODE": 41.4318, "ARG_OF_PERICENTER": 61.4591, "MEAN_ANOMALY": 298.687, "EPHEMERIS_TYPE": 0, "CLASSIFICATION_TYPE": "U", "NORAD_CAT_ID": 46277, "ELEMENT_SET_NO": 999, "REV_AT_EPOCH": 29255, "BSTAR": 0.0003134901, "MEAN_MOTION_DOT": 0.00012509, "MEAN_MOTION_DDOT": 0}, "tle": {"line1": "1 46277U 20061F   25342.27661693  .00012509  00000+0  31349-3 0  9990", "line2": "2 46277  97.2213  41.4318 0002130  61.4591 298.6870 15.40187576292552"}}, "geometry": {"type": "Point", "coordinates": [36.28008531923104, 37.61840961125269]}}, {"type": "Feature", "properties": {"norad_id": 46984, "name": "SENTINEL-6A", "group": "resource", "lat": 7.897215892023024, "lon": 174.1560183138658, "alt_km": 1339.5627166734457, "timestamp": "2025-12-08T17:43:04.551835+00:00", "meta": {"OBJECT_NAME": "SENTINEL-6A", "OBJECT_ID": "2020-086A", "EPOCH": "2025-12-08T06:25:47.973504", "MEAN_MOTION": 12.80930415, "ECCENTRICITY": 0.00077367, "INCLINATION": 66.0392, "RA_OF_ASC_NODE": 171.5965, "ARG_OF_PERICENTER": 269.2421, "MEAN_ANOMALY": 90.7708, "EPHEMERIS_TYPE": 0, "CLASSIFICATION_TYPE": "U", "NORAD_CAT_ID": 46984, "ELEMENT_SET_NO": 999, "REV_AT_EPOCH": 23587, "BSTAR": 4.402365e-05, "MEAN_MOTION_DOT": -5.1e-07, "MEAN_MOTION_DDOT": 0}, "tle": {"line1": "1 46984U 20086A   25342.26791636 -.00000051  00000+0  44024-4 0  9997", "line2": "2 46984  66.0392 171.5965 0007736 269.2421  90.7708 12.80930415235871"}}, "geometry": {"type": "Point", "coordinates": [174.1560183138658, 7.897215892023024]}}, {"type": "Feature", "properties": {"norad_id": 48079, "name": "GAOFEN-12 02", "group": "resource", "lat": -79.68407955021337, "lon": 27.223049634379194, "alt_km": 636.9201726717074, "timestamp": "2025-12-08T17:43:04.551846+00:00", "meta": {"OBJECT_NAME": "GAOFEN-12 02", "OBJECT_ID": "2021-026A", "EPOCH": "2025-12-08T06:44:29.237280", "MEAN_MOTION": 14.80667334, "ECCENTRICITY": 0.00034395, "INCLINATION": 97.9849, "RA_OF_ASC_NODE": 336.3089, "ARG_OF_PERICENTER": 109.8327, "MEAN_ANOMALY": 250.3256, "EPHEMERIS_TYPE": 0, "CLASSIFICATION_TYPE": "U", "NORAD_CAT_ID": 48079, "ELEMENT_SET_NO": 999, "REV_AT_EPOCH": 25351, "BSTAR": 0.00014158633, "MEAN_MOTION_DOT": 1.035e-05, "MEAN_MOTION_DDOT": 0}, "tle": {"line1": "1 48079U 21026A   25342.28089395  .00001035  00000+0  14159-3 0  9990", "line2": "2 48079  97.9849 336.3089 0003439 109.8327 250.3256 14.80667334253518"}}, "geometry": {"type": "Point", "coordinates": [27.223049634379194, -79.68407955021337]}}, {"type": "Feature", "properties": {"norad_id": 48268, "name": "PLEIADES NEO 3", "group": "resource", "lat": -30.648862475181954, "lon": 59.95303051230617, "alt_km": 630.6002939327891, "timestamp": "2025-12-08T17:43:04.551857+00:00", "meta": {"OBJECT_NAME": "PLEIADES NEO 3", "OBJECT_ID": "2021-034A", "EPOCH": "2025-12-08T06:30:43.133184", "MEAN_MOTION": 14.81671201, "ECCENTRICITY": 0.00013002, "INCLINATION": 97.8949, "RA_OF_ASC_NODE": 54.7764, "ARG_OF_PERICENTER": 95.8035, "MEAN_ANOMALY": 264.3326, "EPHEMERIS_TYPE": 0, "CLASSIFICATION_TYPE": "U", "NORAD_CAT_ID": 48268, "ELEMENT_SET_NO": 999, "REV_AT_EPOCH": 24938, "BSTAR": 2.7174263e-05, "MEAN_MOTION_DOT": 1.62e-06, "MEAN_MOTION_DDOT": 0}, "tle": {"line1": "1 48268U 21034A   25342.27133256  .00000162  00000+0  27174-4 0  9996", "line2": "2 48268  97.8949  54.7764 0001300  95.8035 264.3326 14.81671201249386"}}, "geometry": {"type": "Point", "coordinates": [59.95303051230617, -30.648862475181954]}}, {"type": "Feature", "properties": {"norad_id": 49070, "name": "PLEIADES NEO 4", "group": "resource", "lat": 30.353076563580203, "lon": -120.10601800235332, "alt_km": 621.9849947876637, "timestamp": "2025-12-08T17:43:04.551868+00:00", "meta": {"OBJECT_NAME": "PLEIADES NEO 4", "OBJECT_ID": "2021-073E", "EPOCH": "2025-12-08T05:42:04.675968", "MEAN_MOTION": 14.81672496, "ECCENTRICITY": 0.0001261, "INCLINATION": 97.8951, "RA_OF_ASC_NODE": 54.7394, "ARG_OF_PERICENTER": 95.6891, "MEAN_ANOMALY": 264.4466, "EPHEMERIS_TYPE": 0, "CLASSIFICATION_TYPE": "U", "NORAD_CAT_ID": 49070, "ELEMENT_SET_NO": 999, "REV_AT_EPOCH": 23309, "BSTAR": 8.5426482e-05, "MEAN_MOTION_DOT": 6.2e-06, "MEAN_MOTION_DDOT": 0}, "tle": {"line1": "1 49070U 21073E   25342.23755412  .00000620  00000+0  85426-4 0  9994", "line2": "2 49070  97.8951  54.7394 0001261  95.6891 264.4466 14.81672496233098"}}, "geometry": {"type": "Point", "coordinates": [-120.10601800235332, 30.353076563580203]}}, {"type": "Feature", "properties": {"norad_id": 49260, "name": "LANDSAT 9", "group": "resource", "lat": 20.5430540761578, "lon": -125.99145492354708, "alt_km": 702.1378303703941, "timestamp": "2025-12-08T17:43:04.551879+00:00", "meta": {"OBJECT_NAME": "LANDSAT 9", "OBJECT_ID": "2021-088A", "EPOCH": "2025-12-08T03:48:20.428128", "MEAN_MOTION": 14.57122737, "ECCENTRICITY": 0.00011094, "INCLINATION": 98.2099, "RA_OF_ASC_NODE": 50.3359, "ARG_OF_PERICENTER": 94.3482, "MEAN_ANOMALY": 265.7843, "EPHEMERIS_TYPE": 0, "CLASSIFICATION_TYPE": "U", "NORAD_CAT_ID": 49260, "ELEMENT_SET_NO": 999, "REV_AT_EPOCH": 22318, "BSTAR": 0.00017404713, "MEAN_MOTION_DOT": 7.39e-06, "MEAN_MOTION_DDOT": 0}, "tle": {"line1": "1 49260U 21088A   25342.15856977  .00000739  00000+0  17405-3 0  9992", "line2": "2 49260  98.2099  50.3359 0001109  94.3482 265.7843 14.57122737223186"}}, "geometry": {"type": "Point", "coordinates": [-125.99145492354708, 20.5430540761578]}}]}